NORAD_CAT_ID,OBJECT_NAME,OBJECT_TYPE,EPOCH,MEAN_MOTION,ECCENTRICITY,INCLINATION,RA_OF_ASC_NODE,ARG_OF_PERICENTER,MEAN_ANOMALY,BSTAR,MEAN_MOTION_DOT,MEAN_MOTION_DDOT,TLE_LINE0,TLE_LINE1,TLE_LINE2,SEMIMAJOR_AXIS,PERIOD,APOGEE,PERIGEE,DECAYED
53705.0,STARLINK-4717,PAYLOAD,2023-08-14 03:40:32,15.0884046,0.0001277,53.2155,137.5926,92.8275,267.2863,4.7621e-05,4.7e-06,0.0,0 STARLINK-4717,1 53705U 22107F   23226.15315821  .00000470  00000-0  47621-4 0  9998,2 53705  53.2155 137.5926 0001277  92.8275 267.2863 15.08840460 52418,6917.879,95.438,540.627,538.861,0.0
53705.0,STARLINK-4717,PAYLOAD,2023-08-15 17:49:48,15.08837428,0.0001526,53.2163,130.4526,101.1693,258.9471,1.6028e-05,-3.3e-07,0.0,0 STARLINK-4717,1 53705U 22107F   23227.74292087 -.00000033  00000-0  16028-4 0  9995,2 53705  53.2163 130.4526 0001526 101.1693 258.9471 15.08837428 52658,6917.888,95.438,540.809,538.698,0.0
53705.0,STARLINK-4717,PAYLOAD,2023-08-17 01:37:30,15.08844757,0.0001478,53.2169,124.508,92.7664,267.3498,-5.0623e-06,-3.69e-06,0.0,0 STARLINK-4717,1 53705U 22107F   23229.06771692 -.00000369  00000-0 -50623-5 0  9999,2 53705  53.2169 124.5080 0001478  92.7664 267.3498 15.08844757 52850,6917.866,95.437,540.753,538.708,0.0
53705.0,STARLINK-4717,PAYLOAD,2023-08-17 17:31:22,15.08835697,0.0001461,53.215,121.5346,90.635,269.4809,1.9818e-05,2.7e-07,0.0,0 STARLINK-4717,1 53705U 22107F   23229.73012290  .00000027  00000-0  19818-4 0  9994,2 53705  53.2150 121.5346 0001461  90.6350 269.4809 15.08835697 52956,6917.894,95.438,540.769,538.748,0.0
53705.0,STARLINK-4717,PAYLOAD,2023-08-19 01:19:05,15.08837641,0.0001429,53.2156,115.5872,88.3896,271.726,-3.8608e-05,-9.02e-06,0.0,0 STARLINK-4717,1 53705U 22107F   23231.05492567 -.00000902  00000-0 -38608-4 0  9993,2 53705  53.2156 115.5872 0001429  88.3896 271.7260 15.08837641 53153,6917.888,95.438,540.741,538.764,0.0
53705.0,STARLINK-4717,PAYLOAD,2023-08-20 02:45:16,15.08834628,0.0001465,53.216,110.8291,86.2646,273.8514,4.6447e-05,4.51e-06,0.0,0 STARLINK-4717,1 53705U 22107F   23232.11476852  .00000451  00000-0  46447-4 0  9997,2 53705  53.2160 110.8291 0001465  86.2646 273.8514 15.08834628 53316,6917.897,95.438,540.775,538.748,0.0
53705.0,STARLINK-4717,PAYLOAD,2023-08-21 01:00:39,15.08845549,0.000132,53.2165,106.6651,89.1798,270.9345,0.000147,2.053e-05,0.0,0 STARLINK-4717,1 53705U 22107F   23233.04211860  .00002053  00000-0  14700-3 0  9992,2 53705  53.2165 106.6651 0001320  89.1798 270.9345 15.08845549 53453,6917.863,95.437,540.642,538.815,0.0
53705.0,STARLINK-4717,PAYLOAD,2023-08-21 20:05:17,15.08839346,0.0001492,53.2174,103.0959,86.3371,273.7792,2.2986e-05,7.8e-07,0.0,0 STARLINK-4717,1 53705U 22107F   23233.83700822  .00000078  00000-0  22986-4 0  9991,2 53705  53.2174 103.0959 0001492  86.3371 273.7792 15.08839346 53579,6917.882,95.438,540.78,538.715,0.0
53705.0,STARLINK-4717,PAYLOAD,2023-08-23 00:42:13,15.08844276,0.0001335,53.2167,97.744,88.4032,271.7113,-1.843e-05,-5.81e-06,0.0,0 STARLINK-4717,1 53705U 22107F   23235.02932553 -.00000581  00000-0 -18430-4 0  9992,2 53705  53.2167  97.7440 0001335  88.4032 271.7113 15.08844276 53751,6917.867,95.437,540.656,538.809,0.0
53705.0,STARLINK-4717,PAYLOAD,2023-08-24 00:33:00,15.08838368,0.0001453,53.2175,93.282,98.2714,261.8443,3.324e-05,2.41e-06,0.0,0 STARLINK-4717,1 53705U 22107F   23236.02292821  .00000241  00000-0  33240-4 0  9997,2 53705  53.2175  93.2820 0001453  98.2714 261.8443 15.08838368 54651,6917.885,95.438,540.756,538.745,0.0
53705.0,STARLINK-4717,PAYLOAD,2023-08-25 19:28:26,15.08836104,0.0001442,53.2171,85.2529,103.7676,256.3477,3.6098e-05,2.87e-06,0.0,0 STARLINK-4717,1 53705U 22107F   23237.81141364  .00000287  00000-0  36098-4 0  9994,2 53705  53.2171  85.2529 0001442 103.7676 256.3477 15.08836104 54170,6917.892,95.438,540.755,538.76,0.0
53705.0,STARLINK-4717,PAYLOAD,2023-08-26 00:14:35,15.08838587,0.0001374,53.2173,84.3619,92.5036,267.6113,4.3485e-05,4.04e-06,0.0,0 STARLINK-4717,1 53705U 22107F   23238.01013283  .00000404  00000-0  43485-4 0  9994,2 53705  53.2173  84.3619 0001374  92.5036 267.6113 15.08838587 54956,6917.885,95.438,540.7,538.799,0.0
53705.0,STARLINK-4717,PAYLOAD,2023-08-26 17:43:50,15.08829103,0.000126,53.2172,81.0902,109.9016,250.2112,-9.1199e-06,-4.33e-06,0.0,0 STARLINK-4717,1 53705U 22107F   23238.73878403 -.00000433  00000-0 -91199-5 0  9996,2 53705  53.2172  81.0902 0001260 109.9016 250.2112 15.08829103 54310,6917.914,95.438,540.65,538.907,0.0
53705.0,STARLINK-4717,PAYLOAD,2023-08-26 20:54:37,15.08826533,0.0001365,53.2173,80.4959,84.3944,275.7204,-1.7307e-05,-5.63e-06,0.0,0 STARLINK-4717,1 53705U 22107F   23238.87126767 -.00000563  00000-0 -17307-4 0  9992,2 53705  53.2173  80.4959 0001365  84.3944 275.7204 15.08826533 55081,6917.922,95.438,540.731,538.842,0.0
53705.0,STARLINK-4717,PAYLOAD,2023-08-27 00:05:23,15.08826248,0.0001361,53.2172,79.9015,84.2531,275.8617,-2.2296e-05,-6.43e-06,0.0,0 STARLINK-4717,1 53705U 22107F   23239.00374913 -.00000643  00000-0 -22296-4 0  9998,2 53705  53.2172  79.9015 0001361  84.2531 275.8617 15.08826248 55108,6917.922,95.438,540.729,538.846,0.0
53705.0,STARLINK-4717,PAYLOAD,2023-08-27 17:34:37,15.0884281,0.0001121,53.2165,76.6317,116.8276,243.2831,5.3187e-05,5.59e-06,0.0,0 STARLINK-4717,1 53705U 22107F   23239.73237549  .00000559  00000-0  53187-4 0  9998,2 53705  53.2165  76.6317 0001121 116.8276 243.2831 15.08842810 54469,6917.872,95.437,540.512,538.961,0.0
53705.0,STARLINK-4717,PAYLOAD,2023-08-27 20:45:23,15.08848925,0.000147,53.217,76.0374,72.7023,287.413,0.00010872,1.443e-05,0.0,0 STARLINK-4717,1 53705U 22107F   23239.86485273  .00001443  00000-0  10872-3 0  9997,2 53705  53.2170  76.0374 0001470  72.7023 287.4130 15.08848925 55230,6917.853,95.437,540.735,538.701,0.0
53705.0,STARLINK-4717,PAYLOAD,2023-08-27 23:56:09,15.08847781,0.0001431,53.2165,75.441,112.6362,247.4782,0.0002288,3.356e-05,0.0,0 STARLINK-4717,1 53705U 22107F   23239.99732798  .00003356  00000-0  22880-3 0  9995,2 53705  53.2165  75.4410 0001431 112.6362 247.4782 15.08847781 54502,6917.857,95.437,540.712,538.732,0.0
53705.0,STARLINK-4717,PAYLOAD,2023-08-28 06:17:42,15.08844977,0.0001333,53.2173,74.2508,87.9847,272.1297,9.916e-05,1.291e-05,0.0,0 STARLINK-4717,1 53705U 22107F   23240.26229359  .00001291  00000-0  99160-4 0  9993,2 53705  53.2173  74.2508 0001333  87.9847 272.1297 15.08844977 54543,6917.865,95.437,540.652,538.808,0.0
53705.0,STARLINK-4717,PAYLOAD,2023-08-28 19:00:47,15.08837784,0.0001333,53.217,71.8706,86.9287,273.1857,0.00012737,1.74e-05,0.0,0 STARLINK-4717,1 53705U 22107F   23240.79221756  .00001740  00000-0  12737-3 0  9997,2 53705  53.2170  71.8706 0001333  86.9287 273.1857 15.08837784 54620,6917.887,95.438,540.674,538.83,0.0
53705.0,STARLINK-4717,PAYLOAD,2023-08-28 20:36:10,15.08840842,0.0001242,53.2159,71.5734,94.044,266.0694,0.00013981,1.938e-05,0.0,0 STARLINK-4717,1 53705U 22107F   23240.85845453  .00001938  00000-0  13981-3 0  9991,2 53705  53.2159  71.5734 0001242  94.0440 266.0694 15.08840842 55388,6917.878,95.438,540.602,538.884,0.0
53705.0,STARLINK-4717,PAYLOAD,2023-08-29 18:51:34,15.0884796,0.000133,53.2159,67.4144,88.235,271.8794,-6.0031e-05,-1.243e-05,0.0,0 STARLINK-4717,1 53705U 22107F   23241.78581562 -.00001243  00000-0 -60031-4 0  9992,2 53705  53.2159  67.4144 0001330  88.2350 271.8794 15.08847960 55529,6917.856,95.437,540.641,538.801,0.0
53705.0,STARLINK-4717,PAYLOAD,2023-08-29 22:02:20,15.08850439,0.0001348,53.2154,66.8198,86.2453,273.8693,-4.3837e-05,-9.86e-06,0.0,0 STARLINK-4717,1 53705U 22107F   23241.91829288 -.00000986  00000-0 -43837-4 0  9995,2 53705  53.2154  66.8198 0001348  86.2453 273.8693 15.08850439 54790,6917.848,95.437,540.646,538.781,0.0
53705.0,STARLINK-4717,PAYLOAD,2023-08-30 12:20:49,15.08839355,0.0001344,53.2153,64.1419,88.6715,271.4431,2.1511e-05,5.4e-07,0.0,0 STARLINK-4717,1 53705U 22107F   23242.51445604  .00000054  00000-0  21511-4 0  9997,2 53705  53.2153  64.1419 0001344  88.6715 271.4431 15.08839355 54887,6917.882,95.438,540.677,538.818,0.0
53705.0,STARLINK-4717,PAYLOAD,2023-08-30 18:42:21,15.08839565,0.0001291,53.2151,62.9537,85.8869,274.227,2.4509e-05,1.02e-06,0.0,0 STARLINK-4717,1 53705U 22107F   23242.77941560  .00000102  00000-0  24509-4 0  9991,2 53705  53.2151  62.9537 0001291  85.8869 274.2270 15.08839565 55675,6917.882,95.438,540.64,538.854,0.0
53705.0,STARLINK-4717,PAYLOAD,2023-08-31 21:43:54,15.08841977,0.0001345,53.2165,57.8974,92.0241,268.0905,2.5017e-05,1.1e-06,0.0,0 STARLINK-4717,1 53705U 22107F   23243.90549442  .00000110  00000-0  25017-4 0  9994,2 53705  53.2165  57.8974 0001345  92.0241 268.0905 15.08841977 55847,6917.874,95.437,540.67,538.809,0.0
53705.0,STARLINK-4717,PAYLOAD,2023-09-01 18:23:55,15.08852231,6.15e-05,53.216,54.0306,33.0897,327.0134,-2.3006e-05,-6.54e-06,0.0,0 STARLINK-4717,1 53705U 22107F   23244.76661630 -.00000654  00000-0 -23006-4 0  9994,2 53705  53.2160  54.0306 0000615  33.0897 327.0134 15.08852231 55970,6917.843,95.437,540.133,539.283,0.0
53705.0,STARLINK-4717,PAYLOAD,2023-09-02 10:17:47,15.08846875,8.7e-05,53.2185,51.058,55.9349,304.1726,-0.00010363,-1.937e-05,0.0,0 STARLINK-4717,1 53705U 22107F   23245.42901949 -.00001937  00000-0 -10363-3 0  9994,2 53705  53.2185  51.0580 0000870  55.9349 304.1726 15.08846875 55325,6917.859,95.437,540.326,539.123,0.0
53705.0,STARLINK-4717,PAYLOAD,2023-09-02 11:53:10,15.08844929,8.88e-05,53.2188,50.7612,65.303,294.8054,-0.00010959,-2.032e-05,0.0,0 STARLINK-4717,1 53705U 22107F   23245.49526070 -.00002032  00000-0 -10959-3 0  9997,2 53705  53.2188  50.7612 0000888  65.3030 294.8054 15.08844929 56082,6917.865,95.437,540.345,539.116,0.0
53705.0,STARLINK-4717,PAYLOAD,2023-09-02 18:14:43,15.08837433,0.0001123,53.2178,49.5726,82.1799,277.9321,-1.8607e-05,-5.84e-06,0.0,0 STARLINK-4717,1 53705U 22107F   23245.76022223 -.00000584  00000-0 -18607-4 0  9997,2 53705  53.2178  49.5726 0001123  82.1799 277.9321 15.08837433 56121,6917.888,95.438,540.53,538.976,0.0
